[{"OBJECT_NAME":"ONEWEB-0629","OBJECT_ID":"2023-004AG","EPOCH":"2025-10-30T06:06:47.148768","MEAN_MOTION":13.17647806,"ECCENTRICITY":0.00014148,"INCLINATION":87.9116,"RA_OF_ASC_NODE":51.6015,"ARG_OF_PERICENTER":105.8666,"MEAN_ANOMALY":254.2622,"EPHEMERIS_TYPE":0,"CLASSIFICATION_TYPE":"U","NORAD_CAT_ID":55170,"ELEMENT_SET_NO":999,"REV_AT_EPOCH":13730,"BSTAR":0.00013219482,"MEAN_MOTION_DOT":6.4e-7,"MEAN_MOTION_DDOT":0},{"OBJECT_NAME":"ONEWEB-0631","OBJECT_ID":"2023-004AH","EPOCH":"2025-10-30T06:30:33.801120","MEAN_MOTION":13.18686497,"ECCENTRICITY":0.00022243,"INCLINATION":87.9228,"RA_OF_ASC_NODE":21.0941,"ARG_OF_PERICENTER":88.629,"MEAN_ANOMALY":271.5097,"EPHEMERIS_TYPE":0,"CLASSIFICATION_TYPE":"U","NORAD_CAT_ID":55171,"ELEMENT_SET_NO":999,"REV_AT_EPOCH":13937,"BSTAR":5.8161353e-5,"MEAN_MOTION_DOT":3.6e-7,"MEAN_MOTION_DDOT":0},{"OBJECT_NAME":"ONEWEB-0709","OBJECT_ID":"2023-004AJ","EPOCH":"2025-10-30T07:43:56.017632","MEAN_MOTION":13.11419693,"ECCENTRICITY":0.00025587,"INCLINATION":87.8839,"RA_OF_ASC_NODE":66.8639,"ARG_OF_PERICENTER":96.352,"MEAN_ANOMALY":263.7899,"EPHEMERIS_TYPE":0,"CLASSIFICATION_TYPE":"U","NORAD_CAT_ID":55172,"ELEMENT_SET_NO":999,"REV_AT_EPOCH":13574,"BSTAR":0.00066269857,"MEAN_MOTION_DOT":2.48e-6,"MEAN_MOTION_DDOT":0},{"OBJECT_NAME":"ONEWEB-0710","OBJECT_ID":"2023-004AK","EPOCH":"2025-10-30T06:27:27.249696","MEAN_MOTION":13.17649219,"ECCENTRICITY":0.00015971,"INCLINATION":87.9118,"RA_OF_ASC_NODE":51.5929,"ARG_OF_PERICENTER":94.5412,"MEAN_ANOMALY":265.5902,"EPHEMERIS_TYPE":0,"CLASSIFICATION_TYPE":"U","NORAD_CAT_ID":55173,"ELEMENT_SET_NO":999,"REV_AT_EPOCH":13730,"BSTAR":0.00021858957,"MEAN_MOTION_DOT":9.8e-7,"MEAN_MOTION_DDOT":0},{"OBJECT_NAME":"ONEWEB-0711","OBJECT_ID":"2023-004AL","EPOCH":"2025-10-30T07:02:23.581536","MEAN_MOTION":13.11415361,"ECCENTRICITY":0.00012592,"INCLINATION":87.8848,"RA_OF_ASC_NODE":66.8402,"ARG_OF_PERICENTER":73.35,"MEAN_ANOMALY":286.7766,"EPHEMERIS_TYPE":0,"CLASSIFICATION_TYPE":"U","NORAD_CAT_ID":55174,"ELEMENT_SET_NO":999,"REV_AT_EPOCH":13570,"BSTAR":-0.0018627932,"MEAN_MOTION_DOT":-6.47e-6,"MEAN_MOTION_DDOT":0},{"OBJECT_NAME":"ONEWEB-0713","OBJECT_ID":"2023-004AM","EPOCH":"2025-10-30T01:59:40.746336","MEAN_MOTION":13.11418905,"ECCENTRICITY":0.00014603,"INCLINATION":87.8841,"RA_OF_ASC_NODE":66.8866,"ARG_OF_PERICENTER":89.1928,"MEAN_ANOMALY":270.9367,"EPHEMERIS_TYPE":0,"CLASSIFICATION_TYPE":"U","NORAD_CAT_ID":55175,"ELEMENT_SET_NO":999,"REV_AT_EPOCH":13566,"BSTAR":-0.00070142614,"MEAN_MOTION_DOT":-2.36e-6,"MEAN_MOTION_DDOT":0},{"OBJECT_NAME":"ONEWEB-0715","OBJECT_ID":"2023-004AN","EPOCH":"2025-10-30T07:21:57.519072","MEAN_MOTION":13.11418562,"ECCENTRICITY":0.00022181,"INCLINATION":87.8847,"RA_OF_ASC_NODE":66.8418,"ARG_OF_PERICENTER":86.9889,"MEAN_ANOMALY":273.1493,"EPHEMERIS_TYPE":0,"CLASSIFICATION_TYPE":"U","NORAD_CAT_ID":55176,"ELEMENT_SET_NO":999,"REV_AT_EPOCH":13573,"BSTAR":-0.0010286393,"MEAN_MOTION_DOT":-3.52e-6,"MEAN_MOTION_DDOT":0},{"OBJECT_NAME":"ONEWEB-0716","OBJECT_ID":"2023-004AP","EPOCH":"2025-10-29T17:32:17.396160","MEAN_MOTION":13.17648853,"ECCENTRICITY":0.00017086,"INCLINATION":87.9118,"RA_OF_ASC_NODE":51.6998,"ARG_OF_PERICENTER":108.0542,"MEAN_ANOMALY":252.0776,"EPHEMERIS_TYPE":0,"CLASSIFICATION_TYPE":"U","NORAD_CAT_ID":55177,"ELEMENT_SET_NO":999,"REV_AT_EPOCH":13723,"BSTAR":-6.5714004e-5,"MEAN_MOTION_DOT":-1.3e-7,"MEAN_MOTION_DDOT":0},{"OBJECT_NAME":"ONEWEB-0717","OBJECT_ID":"2023-004AQ","EPOCH":"2025-10-30T07:42:46.741248","MEAN_MOTION":13.17649891,"ECCENTRICITY":0.00015378,"INCLINATION":87.9135,"RA_OF_ASC_NODE":51.55,"ARG_OF_PERICENTER":75.5246,"MEAN_ANOMALY":284.6056,"EPHEMERIS_TYPE":0,"CLASSIFICATION_TYPE":"U","NORAD_CAT_ID":55178,"ELEMENT_SET_NO":999,"REV_AT_EPOCH":13736,"BSTAR":0.00032640125,"MEAN_MOTION_DOT":1.4e-6,"MEAN_MOTION_DDOT":0},{"OBJECT_NAME":"ONEWEB-0719","OBJECT_ID":"2023-004AR","EPOCH":"2025-10-30T06:08:00.747744","MEAN_MOTION":13.1765001,"ECCENTRICITY":0.00015669,"INCLINATION":87.9131,"RA_OF_ASC_NODE":51.5452,"ARG_OF_PERICENTER":107.2454,"MEAN_ANOMALY":252.8849,"EPHEMERIS_TYPE":0,"CLASSIFICATION_TYPE":"U","NORAD_CAT_ID":55179,"ELEMENT_SET_NO":999,"REV_AT_EPOCH":13730,"BSTAR":0.00017855647,"MEAN_MOTION_DOT":8.2e-7,"MEAN_MOTION_DDOT":0},{"OBJECT_NAME":"ONEWEB-0530","OBJECT_ID":"2023-029A","EPOCH":"2025-10-30T00:24:36.551808","MEAN_MOTION":13.20771067,"ECCENTRICITY":0.00014868,"INCLINATION":87.9193,"RA_OF_ASC_NODE":320.3899,"ARG_OF_PERICENTER":80.1682,"MEAN_ANOMALY":279.9619,"EPHEMERIS_TYPE":0,"CLASSIFICATION_TYPE":"U","NORAD_CAT_ID":55796,"ELEMENT_SET_NO":999,"REV_AT_EPOCH":13076,"BSTAR":-0.00046762668,"MEAN_MOTION_DOT":-1.77e-6,"MEAN_MOTION_DDOT":0},{"OBJECT_NAME":"ONEWEB-0534","OBJECT_ID":"2023-029B","EPOCH":"2025-10-30T07:22:47.371872","MEAN_MOTION":13.20770798,"ECCENTRICITY":0.00018627,"INCLINATION":87.9191,"RA_OF_ASC_NODE":320.3341,"ARG_OF_PERICENTER":96.9724,"MEAN_ANOMALY":263.1622,"EPHEMERIS_TYPE":0,"CLASSIFICATION_TYPE":"U","NORAD_CAT_ID":55797,"ELEMENT_SET_NO":999,"REV_AT_EPOCH":13080,"BSTAR":0.00016432972,"MEAN_MOTION_DOT":8.0e-7,"MEAN_MOTION_DDOT":0},{"OBJECT_NAME":"ONEWEB-0556","OBJECT_ID":"2023-029C","EPOCH":"2025-10-30T02:04:36.182496","MEAN_MOTION":13.2077022,"ECCENTRICITY":0.00012678,"INCLINATION":87.9198,"RA_OF_ASC_NODE":320.3763,"ARG_OF_PERICENTER":110.684,"MEAN_ANOMALY":249.4429,"EPHEMERIS_TYPE":0,"CLASSIFICATION_TYPE":"U","NORAD_CAT_ID":55798,"ELEMENT_SET_NO":999,"REV_AT_EPOCH":13077,"BSTAR":-6.092208e-5,"MEAN_MOTION_DOT":-1.2e-7,"MEAN_MOTION_DDOT":0},{"OBJECT_NAME":"ONEWEB-0562","OBJECT_ID":"2023-029D","EPOCH":"2025-10-30T07:13:41.313504","MEAN_MOTION":13.20772793,"ECCENTRICITY":9.855e-5,"INCLINATION":87.919,"RA_OF_ASC_NODE":320.3174,"ARG_OF_PERICENTER":80.4267,"MEAN_ANOMALY":279.6978,"EPHEMERIS_TYPE":0,"CLASSIFICATION_TYPE":"U","NORAD_CAT_ID":55799,"ELEMENT_SET_NO":999,"REV_AT_EPOCH":13080,"BSTAR":0.00036797822,"MEAN_MOTION_DOT":1.63e-6,"MEAN_MOTION_DDOT":0},{"OBJECT_NAME":"ONEWEB-0563","OBJECT_ID":"2023-029E","EPOCH":"2025-10-30T07:04:36.034464","MEAN_MOTION":13.20770811,"ECCENTRICITY":0.00018867,"INCLINATION":87.9197,"RA_OF_ASC_NODE":320.3441,"ARG_OF_PERICENTER":102.2196,"MEAN_ANOMALY":257.9149,"EPHEMERIS_TYPE":0,"CLASSIFICATION_TYPE":"U","NORAD_CAT_ID":55800,"ELEMENT_SET_NO":999,"REV_AT_EPOCH":13079,"BSTAR":0.00020902327,"MEAN_MOTION_DOT":9.8e-7,"MEAN_MOTION_DDOT":0},{"OBJECT_NAME":"ONEWEB-0564","OBJECT_ID":"2023-029F","EPOCH":"2025-10-30T06:55:30.469440","MEAN_MOTION":13.20793961,"ECCENTRICITY":8.504e-5,"INCLINATION":87.9195,"RA_OF_ASC_NODE":320.3239,"ARG_OF_PERICENTER":18.817,"MEAN_ANOMALY":341.2995,"EPHEMERIS_TYPE":0,"CLASSIFICATION_TYPE":"U","NORAD_CAT_ID":55801,"ELEMENT_SET_NO":999,"REV_AT_EPOCH":13080,"BSTAR":-0.0098172001,"MEAN_MOTION_DOT":-3.978e-5,"MEAN_MOTION_DDOT":0}]
