ONEWEB-0629             
1 55170U 23004AG  25303.25471237  .00000064  00000+0  13219-3 0  9999
2 55170  87.9116  51.6015 0001414 105.8666 254.2622 13.17647806137302
ONEWEB-0631             
1 55171U 23004AH  25303.27122455  .00000036  00000+0  58161-4 0  9992
2 55171  87.9228  21.0941 0002224  88.6290 271.5097 13.18686497139374
ONEWEB-0709             
1 55172U 23004AJ  25303.32217613  .00000248  00000+0  66270-3 0  9994
2 55172  87.8839  66.8639 0002558  96.3520 263.7899 13.11419693135740
ONEWEB-0710             
1 55173U 23004AK  25303.26906539  .00000098  00000+0  21859-3 0  9997
2 55173  87.9118  51.5929 0001597  94.5412 265.5902 13.17649219137301
ONEWEB-0711             
1 55174U 23004AL  25303.29332849 -.00000647  00000+0 -18628-2 0  9999
2 55174  87.8848  66.8402 0001259  73.3500 286.7766 13.11415361135702
ONEWEB-0713             
1 55175U 23004AM  25303.08311049 -.00000236  00000+0 -70143-3 0  9991
2 55175  87.8841  66.8866 0001460  89.1928 270.9367 13.11418905135667
ONEWEB-0715             
1 55176U 23004AN  25303.30691573 -.00000352  00000+0 -10286-2 0  9990
2 55176  87.8847  66.8418 0002218  86.9889 273.1493 13.11418562135732
ONEWEB-0716             
1 55177U 23004AP  25302.73075690 -.00000013  00000+0 -65714-4 0  9995
2 55177  87.9118  51.6998 0001708 108.0542 252.0776 13.17648853137236
ONEWEB-0717             
1 55178U 23004AQ  25303.32137432  .00000140  00000+0  32640-3 0  9995
2 55178  87.9135  51.5500 0001537  75.5246 284.6056 13.17649891137362
ONEWEB-0719             
1 55179U 23004AR  25303.25556421  .00000082  00000+0  17856-3 0  9998
2 55179  87.9131  51.5452 0001566 107.2454 252.8849 13.17650010137307
ONEWEB-0530             
1 55796U 23029A   25303.01708972 -.00000177  00000+0 -46763-3 0  9990
2 55796  87.9193 320.3899 0001486  80.1682 279.9619 13.20771067130763
ONEWEB-0534             
1 55797U 23029B   25303.30749273  .00000080  00000+0  16433-3 0  9994
2 55797  87.9191 320.3341 0001862  96.9724 263.1622 13.20770798130808
ONEWEB-0556             
1 55798U 23029C   25303.08652989 -.00000012  00000+0 -60922-4 0  9997
2 55798  87.9198 320.3763 0001267 110.6840 249.4429 13.20770220130774
ONEWEB-0562             
1 55799U 23029D   25303.30117261  .00000163  00000+0  36798-3 0  9990
2 55799  87.9190 320.3174 0000985  80.4267 279.6978 13.20772793130801
ONEWEB-0563             
1 55800U 23029E   25303.29486151  .00000098  00000+0  20902-3 0  9995
2 55800  87.9197 320.3441 0001886 102.2196 257.9149 13.20770811130799
ONEWEB-0564             
1 55801U 23029F   25303.28854710 -.00003978  00000+0 -98172-2 0  9990
2 55801  87.9195 320.3239 0000850  18.8170 341.2995 13.20793961130806
